[{"OBJECT_NAME":"HAWK-11A","OBJECT_ID":"2024-247F","EPOCH":"2026-03-09T12:17:43.893312","MEAN_MOTION":15.28849427,"ECCENTRICITY":0.00054663,"INCLINATION":44.9941,"RA_OF_ASC_NODE":114.3328,"ARG_OF_PERICENTER":327.3713,"MEAN_ANOMALY":32.6832,"EPHEMERIS_TYPE":0,"CLASSIFICATION_TYPE":"U","NORAD_CAT_ID":62382,"ELEMENT_SET_NO":999,"REV_AT_EPOCH":6774,"BSTAR":0.00034106017,"MEAN_MOTION_DOT":9.457e-5,"MEAN_MOTION_DDOT":0},{"OBJECT_NAME":"STARLINK-34183","OBJECT_ID":"2025-119X","EPOCH":"2026-03-09T08:25:13.605888","MEAN_MOTION":15.2756986,"ECCENTRICITY":9.429e-5,"INCLINATION":43.0014,"RA_OF_ASC_NODE":309.2964,"ARG_OF_PERICENTER":283.8545,"MEAN_ANOMALY":76.2202,"EPHEMERIS_TYPE":0,"CLASSIFICATION_TYPE":"U","NORAD_CAT_ID":64254,"ELEMENT_SET_NO":999,"REV_AT_EPOCH":4411,"BSTAR":0.0009211914,"MEAN_MOTION_DOT":0.00025166,"MEAN_MOTION_DDOT":0}]
